#cP2015 12 29  0  0  0.00000000     288   u+U UNDEF FIT  GFZ                    
## 1877 172800.00000000   300.00000000 57385 0.0000000000000                    
+   77   C01C02C03C04C05C06C07C08C09C10C11C12C14E11E12E14E19                    
+        E22E24E26E30G01G02G03G05G06G07G08G09G10G11G12G13G14                    
+        G15G16G17G18G19G20G21G22G23G24G25G26G27G28G29G30G31                    
+        G32J01R01R02R03R04R05R06R07R08R09R10R11R12R13R14R15                    
+        R16R18R19R20R21R22R23R24R26 00 00 00 00 00 00 00 00                    
++        10 10 10 10 10 10 10 10 10  8  8  8  9  8  8  6 10                    
++         7  6  6  7  5  6  6  5  5  5  6  6  6  6  6  6  5                    
++         5  8  5  7  6  5  6  7  8  5  6  8  6  8  6  6  6                    
++         6 10 10  9  8  6  8  8  8  6 10  6  9  6  7 10  8                    
++         5 10  6  8  6  9  6  8  6  0  0  0  0  0  0  0  0                    
%c M  cc GPS ccc cccc cccc cccc cccc ccccc ccccc ccccc ccccc                    
%c cc cc ccc ccc cccc cccc cccc cccc ccccc ccccc ccccc ccccc                    
%f  1.2500000  1.025000000  0.00000000000  0.000000000000000                    
%f  0.0000000  0.000000000  0.00000000000  0.000000000000000                    
%i    0    0    0    0      0      0      0      0         0                    
%i    0    0    0    0      0      0      0      0         0                    
/* PCV:IGS08_1869 OL/AL:FES2004  NONE     YN CLK:CoN ORB:CoN                    
/*     GeoForschungsZentrum Potsdam                                             
/*                                                                              
/*                                                                              
*  2015 12 29  9  5  0.00000000                                                 
PC01 -32349.605470  27065.841980    128.117598   -426.043183                    
PC02   7262.076709  41521.507539   -377.470394    -41.364567                    
PC03 -14852.316101  39436.487524   -733.189564   -209.524451                    
PC04 -39654.252590  14430.635084   -117.675871   -313.457962                    
PC05  21889.301171  36009.237751   -980.024317      1.368049                    
PC06 -24883.325586  30459.278713  14924.193468    -41.043688                    
PC07 -10243.154885  36255.261346  19296.806582    236.011948                    
PC08 -12608.187505  19231.541508 -35314.545904    -88.899569                    
PC09 -11646.169892  30220.942310  26916.802739    822.648712                    
PC10    780.590874  41913.598446   5727.757711    314.438405                    
PC11  22076.029652  14105.354844  -9421.501892    315.938783                    
PC12   3887.451300  16842.729583 -21845.162099    353.621012                    
PC14  12332.733416  10482.562204  22764.826651    470.600157                    
PE11  23410.678379  17843.656348  -3151.636159      7.124134                    
PE12   9540.186218  21233.584456 -18278.661944   -152.560373                    
PE14   8611.580377  21097.533441 -22481.743029   3044.775721                    
PE19 -22020.625429  17831.864174   8537.789413     -9.337864                    
PE22   9787.868367 -13746.441676  24312.124261    165.808223                    
PE24  11609.492184  18862.686067 -19624.586014   1233.088699                    
PE26 -24641.242048  -2839.689814 -16164.588047   2551.139950                    
PE30   -408.046739 -29450.690887   3014.990003   1207.113054                    
PG01  16266.408119   1683.165002  20895.209320      7.801949                    
PG02 -14170.023630 -21931.905680  -5568.863430    598.580513                    
PG03  19956.625959  -7314.261976  15936.488604     -4.297133                    
PG05 -10753.218874 -11436.401026 -21482.002159   -160.487632                    
PG06  -5543.193003 -25226.903247   6213.201332    120.199561                    
PG07   9090.061925 -14742.584454 -19892.274219    475.740581                    
PG08  25739.496942   5733.547021  -3127.992814    -18.001101                    
PG09  18188.261705  -9537.089487 -16863.815339     38.651332                    
PG10  -8488.174991  22866.753733  10463.482843     47.562215                    
PG11  20904.220995   4869.893994  15133.185676   -624.363130                    
PG12 -19038.220748   4049.307016  17859.321884    356.956035                    
PG13 -20893.085831 -12723.364216 -10364.483512   -174.711492                    
PG14  -1981.202417  15153.676503  21978.005291     12.522351                    
PG15 -26602.525545  -2769.425633   -609.215185   -289.572276                    
PG16   8989.209898  11701.241296 -22138.077834    -53.094392                    
PG17   2372.606088 -14870.500452  22200.738340   -197.704750                    
PG18 -15586.061720  21316.911264    216.272224    467.556621                    
PG19   8289.112261 -13052.371848  21441.570739   -524.097295                    
PG20 -19367.379891   5265.169388 -17588.015511    381.836643                    
PG21  -5982.497472  18430.357893 -17310.156847   -502.234290                    
PG22  -1777.411497  21777.824966  15241.397023    416.815016                    
PG23  25802.868897  -1322.513721  -6901.964076   -152.184159                    
PG24 -17220.687543  -4576.156274  19710.250810     -9.961968                    
PG25 -19423.309894  16086.833685   7929.218023    -90.583234                    
PG26    733.790891  19544.989948 -17950.727229   -187.096378                    
PG27  20264.806107  11646.772320 -12766.965263     48.564104                    
PG28  10117.214201 -22100.916825  11264.903125    491.596976                    
PG29 -20776.223849   6371.063124 -15227.503906    649.955772                    
PG30   2196.554024 -23058.474455 -12927.622452     77.365650                    
PG31   5793.163857  25306.183020   4730.744176    289.311373                    
PG32  15518.907754   5214.385183  20740.512075     63.163127                    
PJ01 -23778.073132  32599.373596  -7603.233313   -126.326085                    
PR01   5983.520443   9368.390576  22952.132102   -147.257037                    
PR02  19874.349294  -3438.354087  15666.768556    168.894754                    
PR03  21546.382004 -13647.227465   -943.692426     58.641898                    
PR04  10240.629953 -15853.293169 -17157.664734    151.093762                    
PR05  -6663.616293  -8953.286993 -22951.923873      3.422400                    
PR06 -20240.998244   4012.044921 -14995.038879     80.958441                    
PR07 -21438.840510  13743.345184   1269.088140     -4.916880                    
PR08 -10662.292832  15921.972765  16887.063160    -27.013459                    
PR09 -10677.164334  -5060.906523  22603.357955     22.929852                    
PR10  -8692.299110  13750.655427  19661.494498      4.041124                    
PR11  -1799.728865  24861.571763   5209.065089     20.962726                    
PR12   6298.438673  21394.907854 -12546.819421     30.712392                    
PR13  10573.361487   4591.817789 -22766.550354     12.081303                    
PR14   8371.431621 -14792.750450 -19004.866810    261.868090                    
PR15   2485.065106 -24650.889385  -6276.180703     60.591474                    
PR16  -6697.858033 -20603.351056  13370.065374     26.800829                    
PR18   -483.076023 -12200.134023  22400.437261     82.433990                    
PR19 -17138.074281 -15587.136604  10684.756342   -144.328118                    
PR20 -22608.339039  -9229.847875  -7280.056692   -211.851026                    
PR21 -15546.744277   2058.744692 -20125.532002     44.461335                    
PR22   1108.219787  12415.374617 -22272.651674    186.610950                    
PR23  17466.917295  15323.731541 -10525.172681    -64.404405                    
PR24  22860.052418   9587.776781   6003.202283   -132.281759                    
PR26 -22685.930012  -8257.359664  -8262.747287 999999.999999                    
EOF                                     
